{"type": "FeatureCollection", "features": [ {"type": "Feature", "properties": {"norad_id": 66335, "name": "STARLINK-35417", "group": "last-30-days", "lat": 32.18328096638655, "lon": 176.12963210059132, "alt_km": 439.66796113433156, "timestamp": "2025-12-03T13:52:08.344042+00:00", "meta": {"OBJECT_NAME": "STARLINK-35417", "OBJECT_ID": "2025-253S", "EPOCH": "2025-12-03T08:00:01.999872", "MEAN_MOTION": 15.40664092, "ECCENTRICITY": 0.00012122, "INCLINATION": 43.0008, "RA_OF_ASC_NODE": 40.0187, "ARG_OF_PERICENTER": 273.1981, "MEAN_ANOMALY": 297.573, "EPHEMERIS_TYPE": 0, "CLASSIFICATION_TYPE": "U", "NORAD_CAT_ID": 66335, "ELEMENT_SET_NO": 999, "REV_AT_EPOCH": 541, "BSTAR": 0.00069633073, "MEAN_MOTION_DOT": 0.00028859, "MEAN_MOTION_DDOT": 0}, "tle": {"line1": "1 66335U 25253S   25337.33335648  .00028859  00000+0  69633-3 0  9996", "line2": "2 66335  43.0008  40.0187 0001212 273.1981 297.5730 15.40664092  5417"}}, "geometry": {"type": "Point", "coordinates": [176.12963210059132, 32.18328096638655]}}, {"type": "Feature", "properties": {"norad_id": 66336, "name": "STARLINK-35404", "group": "last-30-days", "lat": -42.27311905631662, "lon": -39.064394107550726, "alt_km": 416.68714269008433, "timestamp": "2025-12-03T13:52:08.344066+00:00", "meta": {"OBJECT_NAME": "STARLINK-35404", "OBJECT_ID": "2025-253T", "EPOCH": "2025-12-02T21:12:42.149952", "MEAN_MOTION": 15.50648575, "ECCENTRICITY": 0.00014576, "INCLINATION": 43.0002, "RA_OF_ASC_NODE": 42.3018, "ARG_OF_PERICENTER": 287.4567, "MEAN_ANOMALY": 72.6134, "EPHEMERIS_TYPE": 0, "CLASSIFICATION_TYPE": "U", "NORAD_CAT_ID": 66336, "ELEMENT_SET_NO": 999, "REV_AT_EPOCH": 540, "BSTAR": 0.0022090908, "MEAN_MOTION_DOT": 0.00131785, "MEAN_MOTION_DDOT": 0}, "tle": {"line1": "1 66336U 25253T   25336.88382118  .00131785  00000+0  22091-2 0  9999", "line2": "2 66336  43.0002  42.3018 0001457 287.4567  72.6134 15.50648575  5407"}}, "geometry": {"type": "Point", "coordinates": [-39.064394107550726, -42.27311905631662]}}, {"type": "Feature", "properties": {"norad_id": 66337, "name": "STARLINK-34783", "group": "last-30-days", "lat": 17.70344837799565, "lon": -161.4827415873032, "alt_km": 441.5476269933288, "timestamp": "2025-12-03T13:52:08.344079+00:00", "meta": {"OBJECT_NAME": "STARLINK-34783", "OBJECT_ID": "2025-253U", "EPOCH": "2025-12-03T08:00:01.999872", "MEAN_MOTION": 15.40671797, "ECCENTRICITY": 9.741e-05, "INCLINATION": 43.0006, "RA_OF_ASC_NODE": 39.9585, "ARG_OF_PERICENTER": 265.0003, "MEAN_ANOMALY": 330.6294, "EPHEMERIS_TYPE": 0, "CLASSIFICATION_TYPE": "U", "NORAD_CAT_ID": 66337, "ELEMENT_SET_NO": 999, "REV_AT_EPOCH": 546, "BSTAR": 0.00068545264, "MEAN_MOTION_DOT": 0.00028409, "MEAN_MOTION_DDOT": 0}, "tle": {"line1": "1 66337U 25253U   25337.33335648  .00028409  00000+0  68545-3 0  9990", "line2": "2 66337  43.0006  39.9585 0000974 265.0003 330.6294 15.40671797  5464"}}, "geometry": {"type": "Point", "coordinates": [-161.4827415873032, 17.70344837799565]}}, {"type": "Feature", "properties": {"norad_id": 66338, "name": "STARLINK-35477", "group": "last-30-days", "lat": 37.733564611183034, "lon": 162.4986593701532, "alt_km": 438.48193685629394, "timestamp": "2025-12-03T13:52:08.344090+00:00", "meta": {"OBJECT_NAME": "STARLINK-35477", "OBJECT_ID": "2025-253V", "EPOCH": "2025-12-03T00:00:02.000160", "MEAN_MOTION": 15.40654364, "ECCENTRICITY": 9.994e-05, "INCLINATION": 43.0008, "RA_OF_ASC_NODE": 41.9681, "ARG_OF_PERICENTER": 249.6086, "MEAN_ANOMALY": 257.669, "EPHEMERIS_TYPE": 0, "CLASSIFICATION_TYPE": "U", "NORAD_CAT_ID": 66338, "ELEMENT_SET_NO": 999, "REV_AT_EPOCH": 546, "BSTAR": 0.001271885, "MEAN_MOTION_DOT": 0.00053116, "MEAN_MOTION_DDOT": 0}, "tle": {"line1": "1 66338U 25253V   25337.00002315  .00053116  00000+0  12719-2 0  9991", "line2": "2 66338  43.0008  41.9681 0000999 249.6086 257.6690 15.40654364  5462"}}, "geometry": {"type": "Point", "coordinates": [162.4986593701532, 37.733564611183034]}}, {"type": "Feature", "properties": {"norad_id": 66339, "name": "STARLINK-35443", "group": "last-30-days", "lat": -42.735590773078364, "lon": -59.20330841080049, "alt_km": 442.0008342541705, "timestamp": "2025-12-03T13:52:08.344101+00:00", "meta": {"OBJECT_NAME": "STARLINK-35443", "OBJECT_ID": "2025-253W", "EPOCH": "2025-12-03T08:00:01.999872", "MEAN_MOTION": 15.43298052, "ECCENTRICITY": 0.00012231, "INCLINATION": 43.0002, "RA_OF_ASC_NODE": 39.6931, "ARG_OF_PERICENTER": 260.9532, "MEAN_ANOMALY": 83.8814, "EPHEMERIS_TYPE": 0, "CLASSIFICATION_TYPE": "U", "NORAD_CAT_ID": 66339, "ELEMENT_SET_NO": 999, "REV_AT_EPOCH": 546, "BSTAR": -0.047633404, "MEAN_MOTION_DOT": -0.01941426, "MEAN_MOTION_DDOT": 0}, "tle": {"line1": "1 66339U 25253W   25337.33335648 -.01941426  00000+0 -47633-1 0  9991", "line2": "2 66339  43.0002  39.6931 0001223 260.9532  83.8814 15.43298052  5460"}}, "geometry": {"type": "Point", "coordinates": [-59.20330841080049, -42.735590773078364]}}, {"type": "Feature", "properties": {"norad_id": 66340, "name": "STARLINK-35218", "group": "last-30-days", "lat": -41.80033537039732, "lon": -35.40604765123286, "alt_km": 416.00111917903905, "timestamp": "2025-12-03T13:52:08.344112+00:00", "meta": {"OBJECT_NAME": "STARLINK-35218", "OBJECT_ID": "2025-253X", "EPOCH": "2025-12-02T05:44:37.704192", "MEAN_MOTION": 15.50658934, "ECCENTRICITY": 0.0001723, "INCLINATION": 43.0002, "RA_OF_ASC_NODE": 46.0659, "ARG_OF_PERICENTER": 259.1035, "MEAN_ANOMALY": 100.9632, "EPHEMERIS_TYPE": 0, "CLASSIFICATION_TYPE": "U", "NORAD_CAT_ID": 66340, "ELEMENT_SET_NO": 999, "REV_AT_EPOCH": 530, "BSTAR": 0.0021881, "MEAN_MOTION_DOT": 0.00130561, "MEAN_MOTION_DDOT": 0}, "tle": {"line1": "1 66340U 25253X   25336.23932528  .00130561  00000+0  21881-2 0  9996", "line2": "2 66340  43.0002  46.0659 0001723 259.1035 100.9632 15.50658934  5303"}}, "geometry": {"type": "Point", "coordinates": [-35.40604765123286, -41.80033537039732]}}, {"type": "Feature", "properties": {"norad_id": 66341, "name": "STARLINK-35522", "group": "last-30-days", "lat": -42.868748645437655, "lon": -46.68705736928796, "alt_km": 416.61925137467006, "timestamp": "2025-12-03T13:52:08.344123+00:00", "meta": {"OBJECT_NAME": "STARLINK-35522", "OBJECT_ID": "2025-253Y", "EPOCH": "2025-12-02T21:14:11.077152", "MEAN_MOTION": 15.50667334, "ECCENTRICITY": 0.00014747, "INCLINATION": 43.0006, "RA_OF_ASC_NODE": 42.3125, "ARG_OF_PERICENTER": 295.6812, "MEAN_ANOMALY": 64.3896, "EPHEMERIS_TYPE": 0, "CLASSIFICATION_TYPE": "U", "NORAD_CAT_ID": 66341, "ELEMENT_SET_NO": 999, "REV_AT_EPOCH": 540, "BSTAR": 0.0026477102, "MEAN_MOTION_DOT": 0.00158674, "MEAN_MOTION_DDOT": 0}, "tle": {"line1": "1 66341U 25253Y   25336.88485043  .00158674  00000+0  26477-2 0  9994", "line2": "2 66341  43.0006  42.3125 0001474 295.6812  64.3896 15.50667334  5406"}}, "geometry": {"type": "Point", "coordinates": [-46.68705736928796, -42.868748645437655]}}, {"type": "Feature", "properties": {"norad_id": 66342, "name": "STARLINK-35535", "group": "last-30-days", "lat": -23.45932789142947, "lon": -113.84811254017367, "alt_km": 445.7538617448681, "timestamp": "2025-12-03T13:52:08.344133+00:00", "meta": {"OBJECT_NAME": "STARLINK-35535", "OBJECT_ID": "2025-253Z", "EPOCH": "2025-12-03T08:00:01.999872", "MEAN_MOTION": 15.40664523, "ECCENTRICITY": 0.00012419, "INCLINATION": 43.0004, "RA_OF_ASC_NODE": 39.8058, "ARG_OF_PERICENTER": 259.207, "MEAN_ANOMALY": 38.6497, "EPHEMERIS_TYPE": 0, "CLASSIFICATION_TYPE": "U", "NORAD_CAT_ID": 66342, "ELEMENT_SET_NO": 999, "REV_AT_EPOCH": 541, "BSTAR": 0.00059935632, "MEAN_MOTION_DOT": 0.00024785, "MEAN_MOTION_DDOT": 0}, "tle": {"line1": "1 66342U 25253Z   25337.33335648  .00024785  00000+0  59936-3 0  9993", "line2": "2 66342  43.0004  39.8058 0001241 259.2070  38.6497 15.40664523  5413"}}, "geometry": {"type": "Point", "coordinates": [-113.84811254017367, -23.45932789142947]}}, {"type": "Feature", "properties": {"norad_id": 66343, "name": "STARLINK-35467", "group": "last-30-days", "lat": 1.0843303132000952, "lon": -142.67704747632152, "alt_km": 443.65839994080306, "timestamp": "2025-12-03T13:52:08.344144+00:00", "meta": {"OBJECT_NAME": "STARLINK-35467", "OBJECT_ID": "2025-253AA", "EPOCH": "2025-12-03T08:00:01.999872", "MEAN_MOTION": 15.40665357, "ECCENTRICITY": 8.802e-05, "INCLINATION": 43.0005, "RA_OF_ASC_NODE": 39.8961, "ARG_OF_PERICENTER": 259.1407, "MEAN_ANOMALY": 1.3832, "EPHEMERIS_TYPE": 0, "CLASSIFICATION_TYPE": "U", "NORAD_CAT_ID": 66343, "ELEMENT_SET_NO": 999, "REV_AT_EPOCH": 541, "BSTAR": 0.00063428516, "MEAN_MOTION_DOT": 0.00026252, "MEAN_MOTION_DDOT": 0}, "tle": {"line1": "1 66343U 25253AA  25337.33335648  .00026252  00000+0  63429-3 0  9997", "line2": "2 66343  43.0005  39.8961 0000880 259.1407   1.3832 15.40665357  5415"}}, "geometry": {"type": "Point", "coordinates": [-142.67704747632152, 1.0843303132000952]}}, {"type": "Feature", "properties": {"norad_id": 66344, "name": "STARLINK-35511", "group": "last-30-days", "lat": -36.85592907663459, "lon": -15.363891846909436, "alt_km": 416.54035513989857, "timestamp": "2025-12-03T13:52:08.344155+00:00", "meta": {"OBJECT_NAME": "STARLINK-35511", "OBJECT_ID": "2025-253AB", "EPOCH": "2025-12-02T21:07:45.648480", "MEAN_MOTION": 15.50611623, "ECCENTRICITY": 0.00016192, "INCLINATION": 42.9999, "RA_OF_ASC_NODE": 42.2743, "ARG_OF_PERICENTER": 282.3488, "MEAN_ANOMALY": 77.7191, "EPHEMERIS_TYPE": 0, "CLASSIFICATION_TYPE": "U", "NORAD_CAT_ID": 66344, "ELEMENT_SET_NO": 999, "REV_AT_EPOCH": 540, "BSTAR": 0.0017748434, "MEAN_MOTION_DOT": 0.00105314, "MEAN_MOTION_DDOT": 0}, "tle": {"line1": "1 66344U 25253AB  25336.88038945  .00105314  00000+0  17748-2 0  9996", "line2": "2 66344  42.9999  42.2743 0001619 282.3488  77.7191 15.50611623  5402"}}, "geometry": {"type": "Point", "coordinates": [-15.363891846909436, -36.85592907663459]}}]}